NORAD_CAT_ID,OBJECT_NAME,OBJECT_TYPE,EPOCH,MEAN_MOTION,ECCENTRICITY,INCLINATION,RA_OF_ASC_NODE,ARG_OF_PERICENTER,MEAN_ANOMALY,BSTAR,MEAN_MOTION_DOT,MEAN_MOTION_DDOT,TLE_LINE0,TLE_LINE1,TLE_LINE2,SEMIMAJOR_AXIS,PERIOD,APOGEE,PERIGEE,DECAYED
51895.0,STARLINK-3594,PAYLOAD,2022-05-29 18:40:18,15.42287338,7.23e-05,53.2185,75.997,62.2839,297.8242,-0.0050208,-0.00213812,0.0,0 STARLINK-3594,1 51895U 22022AV  22149.77799738 -.00213812  00000-0 -50208-2 0  9997,2 51895  53.2185  75.9970 0000723  62.2839 297.8242 15.42287338 14892,6817.496999999999,93.368,439.855,438.869,0.0
51895.0,STARLINK-3594,PAYLOAD,2022-05-29 22:00:00,15.40679403,0.000128,53.2177,75.3577,56.0011,355.9971,-0.018856,-0.00721793,0.0,0 STARLINK-3594,1 51895U 22022AV  22149.91667824 -.00721793  00000-0 -18856-1 0  9997,2 51895  53.2177  75.3577 0001280  56.0011 355.9971 15.40679403 14916,6822.24,93.465,444.978,443.232,0.0
51895.0,STARLINK-3594,PAYLOAD,2022-05-30 11:48:13,15.40875244,0.0001478,53.2191,72.6414,63.1353,296.9804,-0.0041183,-0.00168379,0.0,0 STARLINK-3594,1 51895U 22022AV  22150.49181775 -.00168379  00000-0 -41183-2 0  9993,2 51895  53.2191  72.6414 0001478  63.1353 296.9804 15.40875244 15000,6821.6619999999975,93.453,444.535,442.519,0.0
51895.0,STARLINK-3594,PAYLOAD,2022-05-30 22:00:00,15.39051005,0.0001488,53.2177,70.6535,73.5997,125.2284,-0.016012,-0.00583074,0.0,0 STARLINK-3594,1 51895U 22022AV  22150.91667824 -.00583074  00000-0 -16012-1 0  9999,2 51895  53.2177  70.6535 0001488  73.5997 125.2284 15.39051005  1309,6827.051,93.564,449.932,447.9,0.0
51895.0,STARLINK-3594,PAYLOAD,2022-05-31 06:00:02,15.38541719,0.0001374,53.2172,69.0903,59.462,187.1302,-0.016372,-0.00586033,0.0,0 STARLINK-3594,1 51895U 22022AV  22151.25002315 -.00586033  00000-0 -16372-1 0  9992,2 51895  53.2172  69.0903 0001374  59.4620 187.1302 15.38541719 15112,6828.558000000001,93.595,451.361,449.485,0.0
51895.0,STARLINK-3594,PAYLOAD,2022-05-31 14:00:01,15.38126061,0.0001279,53.2175,67.5263,64.7212,228.842,-0.020319,-0.00715364,0.0,0 STARLINK-3594,1 51895U 22022AV  22151.58334491 -.00715364  00000-0 -20319-1 0  9998,2 51895  53.2175  67.5263 0001279  64.7212 228.8420 15.38126061 15165,6829.788000000001,93.62,452.526,450.779,0.0
51895.0,STARLINK-3594,PAYLOAD,2022-05-31 22:00:00,15.37618432,0.0001298,53.2177,65.9646,59.2727,280.7634,-0.020781,-0.00719267,0.0,0 STARLINK-3594,1 51895U 22022AV  22151.91667824 -.00719267  00000-0 -20781-1 0  9993,2 51895  53.2177  65.9646 0001298  59.2727 280.7634 15.37618432  1307,6831.291,93.651,454.043,452.269,0.0
51895.0,STARLINK-3594,PAYLOAD,2022-06-01 14:00:01,15.36596152,0.0001268,53.2174,62.8425,55.5587,15.589,-0.02137,-0.00715727,0.0,0 STARLINK-3594,1 51895U 22022AV  22152.58334491 -.00715727  00000-0 -21370-1 0  9990,2 51895  53.2174  62.8425 0001268  55.5587  15.5890 15.36596152 15323,6834.321,93.714,457.052,455.319,0.0
51895.0,STARLINK-3594,PAYLOAD,2022-06-01 20:00:01,15.36216669,0.0001272,53.2177,61.6737,59.1164,315.5643,-0.02178,-0.00720183,0.0,0 STARLINK-3594,1 51895U 22022AV  22152.83334491 -.00720183  00000-0 -21780-1 0  9995,2 51895  53.2177  61.6737 0001272  59.1164 315.5643 15.36216669  1309,6835.446,93.737,458.181,456.442,0.0
51895.0,STARLINK-3594,PAYLOAD,2022-06-02 16:15:10,15.36361522,0.0001684,53.2187,57.7161,110.6503,249.4682,-0.005606,-0.00196904,0.0,0 STARLINK-3594,1 51895U 22022AV  22153.67720160 -.00196904  00000-0 -56060-2 0  9998,2 51895  53.2187  57.7161 0001684 110.6503 249.4682 15.36361522 15496,6835.016,93.728,458.032,455.73,0.0
51895.0,STARLINK-3594,PAYLOAD,2022-06-03 03:15:23,15.32645524,0.0011939,53.2165,55.6112,65.1497,295.0746,-0.017467,-0.00523301,0.0,0 STARLINK-3594,1 51895U 22022AV  22154.13568381 -.00523301  00000-0 -17467-1 0  9997,2 51895  53.2165  55.6112 0011939  65.1497 295.0746 15.32645524 15564,6846.06,93.955,476.098,459.751,0.0
51895.0,STARLINK-3594,PAYLOAD,2022-06-03 18:49:33,15.35021741,0.0001834,53.2186,52.5544,63.1638,296.9553,-0.0049793,-0.00168213,0.0,0 STARLINK-3594,1 51895U 22022AV  22154.78442094 -.00168213  00000-0 -49793-2 0  9995,2 51895  53.2186  52.5544 0001834  63.1638 296.9553 15.35021741 15669,6838.993,93.81,462.112,459.604,0.0
51895.0,STARLINK-3594,PAYLOAD,2022-06-03 23:31:44,15.34253429,0.0002045,53.2198,51.6473,47.0183,313.0992,-0.0057816,-0.00189996,0.0,0 STARLINK-3594,1 51895U 22022AV  22154.98037082 -.00189996  00000-0 -57816-2 0  9990,2 51895  53.2198  51.6473 0002045  47.0183 313.0992 15.34253429 15694,6841.276,93.857,464.54,461.742,0.0
51895.0,STARLINK-3594,PAYLOAD,2022-06-04 10:29:10,15.33575191,0.0002616,53.2191,49.5266,66.0631,294.0646,-0.0069643,-0.00222967,0.0,0 STARLINK-3594,1 51895U 22022AV  22155.43692924 -.00222967  00000-0 -69643-2 0  9990,2 51895  53.2191  49.5266 0002616  66.0631 294.0646 15.33575191 15760,6843.293000000002,93.898,466.948,463.36800000000005,0.0
51895.0,STARLINK-3594,PAYLOAD,2022-06-05 22:00:00,15.29965883,0.0001720999999999,53.2174,42.6728,47.3845,196.2322,-0.026313,-0.00714139,0.0,0 STARLINK-3594,1 51895U 22022AV  22156.91667824 -.00714139  00000-0 -26313-1 0  9998,2 51895  53.2174  42.6728 0001721  47.3845 196.2322 15.29965883 15987,6854.051,94.12,477.096,474.737,0.0
51895.0,STARLINK-3594,PAYLOAD,2022-06-06 14:00:01,15.28945838,0.0001384,53.2174,39.5859,58.2863,258.058,-0.027156,-0.00714037,0.0,0 STARLINK-3594,1 51895U 22022AV  22157.58334491 -.00714037  00000-0 -27156-1 0  9996,2 51895  53.2174  39.5859 0001384  58.2863 258.0580 15.28945838  1304,6857.099,94.183,479.913,478.015,0.0
51895.0,STARLINK-3594,PAYLOAD,2022-06-06 22:00:00,15.28438032,0.000167,53.2175,38.0469,40.3673,311.4192,-0.027716,-0.00725528,0.0,0 STARLINK-3594,1 51895U 22022AV  22157.91667824 -.00725528  00000-0 -27716-1 0  9991,2 51895  53.2175  38.0469 0001670  40.3673 311.4192 15.28438032 16149,6858.618,94.214,481.628,479.338,0.0
51895.0,STARLINK-3594,PAYLOAD,2022-06-07 14:00:01,15.27416523,0.0001431999999999,53.2174,34.9671,50.1224,10.7156,-0.028504,-0.00723261,0.0,0 STARLINK-3594,1 51895U 22022AV  22158.58334491 -.00723261  00000-0 -28504-1 0  9994,2 51895  53.2174  34.9671 0001432  50.1224  10.7156 15.27416523  1306,6861.676,94.277,484.523,482.5580000000001,0.0
51895.0,STARLINK-3594,PAYLOAD,2022-06-07 22:00:00,15.26908506,0.000183,53.2175,33.4319,37.601,56.8408,-0.029077,-0.00726278,0.0,0 STARLINK-3594,1 51895U 22022AV  22158.91667824 -.00726278  00000-0 -29077-1 0  9997,2 51895  53.2175  33.4319 0001830  37.6010  56.8408 15.26908506  1302,6863.198,94.308,486.318,483.807,0.0
51895.0,STARLINK-3594,PAYLOAD,2022-06-08 06:00:02,15.26397422,0.0001431,53.2172,31.8953,56.6406,70.8584,-0.029432,-0.00723911,0.0,0 STARLINK-3594,1 51895U 22022AV  22159.25002315 -.00723911  00000-0 -29432-1 0  9999,2 51895  53.2172  31.8953 0001431  56.6406  70.8584 15.26397422 16342,6864.729,94.34,487.577,485.612,0.0
51895.0,STARLINK-3594,PAYLOAD,2022-06-08 14:00:01,15.25888369,0.0001674,53.2174,30.3593,48.3507,111.4653,-0.029978,-0.00725922,0.0,0 STARLINK-3594,1 51895U 22022AV  22159.58334491 -.00725922  00000-0 -29978-1 0  9997,2 51895  53.2174  30.3593 0001674  48.3507 111.4653 15.25888369  1300,6866.255999999999,94.371,489.271,486.972,0.0
51895.0,STARLINK-3594,PAYLOAD,2022-06-08 22:00:01,15.25376843,0.0001761999999999,53.2174,28.8274,47.7006,143.946,-0.030331,-0.0072338,0.0,0 STARLINK-3594,1 51895U 22022AV  22159.91668981 -.00723380  00000-0 -30331-1 0  9999,2 51895  53.2174  28.8274 0001762  47.7006 143.9460 15.25376843  1308,6867.791,94.403,490.866,488.446,0.0
51895.0,STARLINK-3594,PAYLOAD,2022-06-09 06:00:00,15.24868408,0.0001535,53.2173,27.2945,57.2261,165.5113,-0.03091,-0.00725769,0.0,0 STARLINK-3594,1 51895U 22022AV  22160.25001157 -.00725769  00000-0 -30910-1 0  9990,2 51895  53.2173  27.2945 0001535  57.2261 165.5113 15.24868408 16495,6869.318,94.434,492.237,490.128,0.0
51895.0,STARLINK-3594,PAYLOAD,2022-06-09 14:00:01,15.24357517,0.0001573,53.2175,25.7619,54.5355,198.7447,-0.031306,-0.0072399,0.0,0 STARLINK-3594,1 51895U 22022AV  22160.58334491 -.00723990  00000-0 -31306-1 0  9990,2 51895  53.2175  25.7619 0001573  54.5355 198.7447 15.24357517  1300,6870.852,94.466,493.798,491.637,0.0
51895.0,STARLINK-3594,PAYLOAD,2022-06-09 22:00:00,15.2384722,0.0001730999999999,53.2176,24.2339,44.6681,238.5401,-0.031771,-0.00723631,0.0,0 STARLINK-3594,1 51895U 22022AV  22160.91667824 -.00723631  00000-0 -31771-1 0  9994,2 51895  53.2176  24.2339 0001731  44.6681 238.5401 15.23847220  1309,6872.386,94.498,495.441,493.062,0.0
51895.0,STARLINK-3594,PAYLOAD,2022-06-10 06:00:02,15.23339326,0.0001366,53.2174,22.7039,60.435,252.1527,-0.032437,-0.00727356,0.0,0 STARLINK-3594,1 51895U 22022AV  22161.25002315 -.00727356  00000-0 -32437-1 0  9998,2 51895  53.2174  22.7039 0001366  60.4350 252.1527 15.23339326 16647,6873.9140000000025,94.529,496.718,494.84,0.0
51895.0,STARLINK-3594,PAYLOAD,2022-06-10 14:00:01,15.22825838,0.000145,53.2177,21.1753,53.1737,288.0556,-0.032625,-0.00720927,0.0,0 STARLINK-3594,1 51895U 22022AV  22161.58334491 -.00720927  00000-0 -32625-1 0  9993,2 51895  53.2177  21.1753 0001450  53.1737 288.0556 15.22825838  1302,6875.459,94.561,498.321,496.327,0.0
51895.0,STARLINK-3594,PAYLOAD,2022-06-10 22:00:00,15.22319106,0.0001543,53.2176,19.6508,47.5342,321.7834,-0.033389,-0.00726402,0.0,0 STARLINK-3594,1 51895U 22022AV  22161.91667824 -.00726402  00000-0 -33389-1 0  9991,2 51895  53.2176  19.6508 0001543  47.5342 321.7834 15.22319106  1303,6876.984,94.593,499.911,497.788,0.0
51895.0,STARLINK-3594,PAYLOAD,2022-06-11 14:00:01,15.21296297,0.0001401,53.2176,16.5997,56.0594,7.6032,-0.034154,-0.00721248,0.0,0 STARLINK-3594,1 51895U 22022AV  22162.58334491 -.00721248  00000-0 -34154-1 0  9990,2 51895  53.2176  16.5997 0001401  56.0594   7.6032 15.21296297 16858,6880.066,94.656,502.895,500.968,0.0
